*******************************************************************************
 Revised: Mar 12, 2021           Ganymede / (Jupiter)                       503

 SATELLITE PHYSICAL PROPERTIES:
  Mean radius (km)       = 2631.2   +- 1.7    Density (g cm^-3)= 1.942 +- 0.005
  GM (km^3/s^2)          = 9887.8328+- 0.0074 Geometric Albedo = 0.43  +- 0.02

 SATELLITE ORBIT (at J2000.0 epoch, 2000-Jan-1.5):
  Semi-major axis, a (km) ~ 1,070,000         Orbital period   ~ 7.155 d
  Eccentricity, e         ~ 0                 Rotational period= Synchronous
  Inclination, i  (deg)   ~ 0.2   
*******************************************************************************
 
 
*******************************************************************************
Ephemeris / WWW_USER Wed Apr  7 13:44:09 2021 Pasadena, USA      / Horizons
*******************************************************************************
Target body name: Ganymede (503)                  {source: jup365_merged}
Center body name: Jupiter (599)                   {source: jup365_merged}
Center-site name: BODY CENTER
*******************************************************************************
Start time      : A.D. 1986-Apr-24 12:00:00.0000 TDB
Stop  time      : A.D. 2013-Sep-09 12:00:00.0000 TDB
Step-size       : 144000 minutes
*******************************************************************************
Center geodetic : 0.00000000,0.00000000,0.0000000 {W-lon(deg),Lat(deg),Alt(km)}
Center cylindric: 0.00000000,0.00000000,0.0000000 {W-lon(deg),Dxy(km),Dz(km)}
Center radii    : 71492.0 x 71492.0 x 66854.0 km  {Equator, meridian, pole}    
Output units    : AU-D
Output type     : GEOMETRIC cartesian states
Output format   : 2 (position and velocity)
Reference frame : Ecliptic of J2000.0
*******************************************************************************
JDTDB
   X     Y     Z
   VX    VY    VZ
*******************************************************************************
$$SOE
2450245.000000000 = A.D. 1996-Jun-10 12:00:00.0000 TDB 
 X = 6.015381511008102E-03 Y =-3.854792900306536E-03 Z =-7.573166973777733E-05
 VX= 3.403554590373584E-03 VY= 5.287761162007193E-03 VZ= 2.296553700671919E-04
2450345.000000000 = A.D. 1996-Sep-18 12:00:00.0000 TDB 
 X = 5.402049143034466E-03 Y =-4.679777782160389E-03 Z =-1.124985687024292E-04
 VX= 4.127782640619241E-03 VY= 4.742268497803156E-03 VZ= 2.179344484145387E-04
2450445.000000000 = A.D. 1996-Dec-27 12:00:00.0000 TDB 
 X = 4.670233522325694E-03 Y =-5.412409178104777E-03 Z =-1.473860469949851E-04
 VX= 4.765333755860396E-03 VY= 4.097657053961332E-03 VZ= 2.016566696416669E-04
2450545.000000000 = A.D. 1997-Apr-06 12:00:00.0000 TDB 
 X = 3.836632766030864E-03 Y =-6.027797129747217E-03 Z =-1.791269223051760E-04
 VX= 5.308535171861633E-03 VY= 3.372200576077349E-03 VZ= 1.813726041127145E-04
2450645.000000000 = A.D. 1997-Jul-15 12:00:00.0000 TDB 
 X = 2.928304468199753E-03 Y =-6.510346452267403E-03 Z =-2.069696369927353E-04
 VX= 5.741273379556875E-03 VY= 2.577687003638963E-03 VZ= 1.572150463127588E-04
2450745.000000000 = A.D. 1997-Oct-23 12:00:00.0000 TDB 
 X = 1.966054748646957E-03 Y =-6.859608774048762E-03 Z =-2.305950041528563E-04
 VX= 6.054682196600637E-03 VY= 1.729254446609002E-03 VZ= 1.297811449024102E-04
2450845.000000000 = A.D. 1998-Jan-31 12:00:00.0000 TDB 
 X = 9.637225132447259E-04 Y =-7.072315161250710E-03 Z =-2.496291789785208E-04
 VX= 6.237687236699682E-03 VY= 8.427842799770827E-04 VZ= 9.939114709261394E-05
2450945.000000000 = A.D. 1998-May-11 12:00:00.0000 TDB 
 X =-6.482319415799941E-05 Y =-7.142039176273692E-03 Z =-2.638067212740699E-04
 VX= 6.291053340373448E-03 VY=-6.034589221052292E-05 VZ= 6.688667980144278E-05
2451045.000000000 = A.D. 1998-Aug-19 12:00:00.0000 TDB 
 X =-1.099494393085418E-03 Y =-7.058047094016798E-03 Z =-2.723610081258517E-04
 VX= 6.215697844865015E-03 VY=-9.644110479264955E-04 VZ= 3.292359853792323E-05
2451145.000000000 = A.D. 1998-Nov-27 12:00:00.0000 TDB 
 X =-2.107103091566387E-03 Y =-6.821463509635473E-03 Z =-2.750052723883696E-04
 VX= 6.015731359835436E-03 VY=-1.848436981430951E-03 VZ=-1.804664424965285E-06
2451245.000000000 = A.D. 1999-Mar-07 12:00:00.0000 TDB 
 X =-3.063648706451830E-03 Y =-6.445685711759639E-03 Z =-2.720230972173345E-04
 VX= 5.689811154189000E-03 VY=-2.694488808925228E-03 VZ=-3.651401752943780E-05
2451345.000000000 = A.D. 1999-Jun-15 12:00:00.0000 TDB 
 X =-3.953320151110059E-03 Y =-5.944064550254390E-03 Z =-2.635970334376006E-04
 VX= 5.244655086555646E-03 VY=-3.478573578103309E-03 VZ=-7.030088330814894E-05
2451445.000000000 = A.D. 1999-Sep-23 12:00:00.0000 TDB 
 X =-4.767727848616238E-03 Y =-5.322131738143312E-03 Z =-2.499883608287328E-04
 VX= 4.689369831451704E-03 VY=-4.190078081389650E-03 VZ=-1.027175782944451E-04
2451545.000000000 = A.D. 2000-Jan-01 12:00:00.0000 TDB 
 X =-5.490352844041520E-03 Y =-4.581541308862496E-03 Z =-2.310042060535515E-04
 VX= 4.035698118549232E-03 VY=-4.815331512350181E-03 VZ=-1.330359870228107E-04
2451645.000000000 = A.D. 2000-Apr-10 12:00:00.0000 TDB 
 X =-6.096508600871840E-03 Y =-3.737921512330359E-03 Z =-2.069022481933203E-04
 VX= 3.300175483976347E-03 VY=-5.347293391236907E-03 VZ=-1.609421649550333E-04
2451745.000000000 = A.D. 2000-Jul-19 12:00:00.0000 TDB 
 X =-6.568364253770324E-03 Y =-2.821579057001910E-03 Z =-1.787000096509177E-04
 VX= 2.497275967880733E-03 VY=-5.766800691876557E-03 VZ=-1.855273618437466E-04
2451845.000000000 = A.D. 2000-Oct-27 12:00:00.0000 TDB 
 X =-6.903836603759424E-03 Y =-1.858891890232430E-03 Z =-1.471884267205910E-04
 VX= 1.648064243517762E-03 VY=-6.064383802041687E-03 VZ=-2.061800237998376E-04
2451945.000000000 = A.D. 2001-Feb-04 12:00:00.0000 TDB 
 X =-7.103246976700716E-03 Y =-8.607468527343786E-04 Z =-1.128221299132008E-04
 VX= 7.653541540301549E-04 VY=-6.232021959278171E-03 VZ=-2.225741570250199E-04
2452045.000000000 = A.D. 2001-May-15 12:00:00.0000 TDB 
 X =-7.160620107102035E-03 Y = 1.661144229827572E-04 Z =-7.576471690767621E-05
 VX=-1.351585011635462E-04 VY=-6.271889322649595E-03 VZ=-2.344760782186130E-04
2452145.000000000 = A.D. 2001-Aug-23 12:00:00.0000 TDB 
 X =-7.063828912704762E-03 Y = 1.200150810250126E-03 Z =-3.653519331857925E-05
 VX=-1.037963496910715E-03 VY=-6.184278491013334E-03 VZ=-2.417972421870594E-04
2452245.000000000 = A.D. 2001-Dec-01 12:00:00.0000 TDB 
 X =-6.815330494340553E-03 Y = 2.202831884391198E-03 Z = 3.307061249446249E-06
 VX=-1.916972405842523E-03 VY=-5.972706338142193E-03 VZ=-2.443388946195550E-04
2452345.000000000 = A.D. 2002-Mar-11 12:00:00.0000 TDB 
 X =-6.430929272625909E-03 Y = 3.147822126495235E-03 Z = 4.270790208551829E-05
 VX=-2.752235355540039E-03 VY=-5.639188870282791E-03 VZ=-2.418486667163923E-04
2452445.000000000 = A.D. 2002-Jun-19 12:00:00.0000 TDB 
 X =-5.923518866552241E-03 Y = 4.025059483892785E-03 Z = 8.115144873883211E-05
 VX=-3.524621720024588E-03 VY=-5.189112648444289E-03 VZ=-2.343770962911081E-04
2452545.000000000 = A.D. 2002-Sep-27 12:00:00.0000 TDB 
 X =-5.294040115761236E-03 Y = 4.831246244761800E-03 Z = 1.184139787729198E-04
 VX=-4.228254824622813E-03 VY=-4.628941964496902E-03 VZ=-2.219938162534648E-04
2452645.000000000 = A.D. 2003-Jan-05 12:00:00.0000 TDB 
 X =-4.544860503620315E-03 Y = 5.545680003993075E-03 Z = 1.538202857696178E-04
 VX=-4.847135845326136E-03 VY=-3.970462054341429E-03 VZ=-2.049278929722682E-04
2452745.000000000 = A.D. 2003-Apr-15 12:00:00.0000 TDB 
 X =-3.696909811247522E-03 Y = 6.140577996565469E-03 Z = 1.859803389640613E-04
 VX=-5.370645833042554E-03 VY=-3.233829017258354E-03 VZ=-1.838645613167146E-04
2452845.000000000 = A.D. 2003-Jul-24 12:00:00.0000 TDB 
 X =-2.781775277445776E-03 Y = 6.599473024410540E-03 Z = 2.139114561314296E-04
 VX=-5.780899582154296E-03 VY=-2.434605773351103E-03 VZ=-1.590506902907020E-04
2452945.000000000 = A.D. 2003-Nov-01 12:00:00.0000 TDB 
 X =-1.821093288695466E-03 Y = 6.924004575312000E-03 Z = 2.374716038773189E-04
 VX=-6.070881706011704E-03 VY=-1.589589335261679E-03 VZ=-1.311123604617286E-04
2453045.000000000 = A.D. 2004-Feb-09 12:00:00.0000 TDB 
 X =-8.198905168555647E-04 Y = 7.114560021035747E-03 Z = 2.564884691009198E-04
 VX=-6.233179881454575E-03 VY=-7.068832497466082E-04 VZ=-1.002393385764307E-04
2453145.000000000 = A.D. 2004-May-19 12:00:00.0000 TDB 
 X = 2.100547581845276E-04 Y = 7.161998178269695E-03 Z = 2.705682759167343E-04
 VX=-6.267927211596355E-03 VY= 1.938688137587638E-04 VZ=-6.710622188169995E-05
2453245.000000000 = A.D. 2004-Aug-27 12:00:00.0000 TDB 
 X = 1.241850566991787E-03 Y = 7.055534156603576E-03 Z = 2.789654098820944E-04
 VX=-6.175669133336764E-03 VY= 1.093258493289282E-03 VZ=-3.255302152673628E-05
2453345.000000000 = A.D. 2004-Dec-05 12:00:00.0000 TDB 
 X = 2.238484765183526E-03 Y = 6.799055242468845E-03 Z = 2.813216446447998E-04
 VX=-5.960539398093579E-03 VY= 1.966324045565256E-03 VZ= 2.533988597763958E-06
2453445.000000000 = A.D. 2005-Mar-15 12:00:00.0000 TDB 
 X = 3.179098404841100E-03 Y = 6.407760066353566E-03 Z = 2.780675979848540E-04
 VX=-5.623600895770101E-03 VY= 2.797793724275222E-03 VZ= 3.753814265178424E-05
2453545.000000000 = A.D. 2005-Jun-23 12:00:00.0000 TDB 
 X = 4.056206190963321E-03 Y = 5.891446774679772E-03 Z = 2.693809961265491E-04
 VX=-5.167471906337928E-03 VY= 3.569983429405476E-03 VZ= 7.173368039178904E-05
2453645.000000000 = A.D. 2005-Oct-01 12:00:00.0000 TDB 
 X = 4.860367806733248E-03 Y = 5.252634224918431E-03 Z = 2.552782542451722E-04
 VX=-4.601178889132023E-03 VY= 4.272528472709930E-03 VZ= 1.047220742967742E-04
2453745.000000000 = A.D. 2006-Jan-09 12:00:00.0000 TDB 
 X = 5.568620488507601E-03 Y = 4.497258239711924E-03 Z = 2.357539955116138E-04
 VX=-3.938220515255521E-03 VY= 4.887287755405609E-03 VZ= 1.355968230795229E-04
2453845.000000000 = A.D. 2006-Apr-19 12:00:00.0000 TDB 
 X = 6.155756253720651E-03 Y = 3.645386033121605E-03 Z = 2.111503232175864E-04
 VX=-3.198284690800645E-03 VY= 5.405720758447030E-03 VZ= 1.638339865457405E-04
